{
  "norad_id": 53150,
  "name": "STARLINK-4038",
  "history": [
    {
      "epoch": "2026-03-29T02:45:48.547872Z",
      "apogee_km": 207.91178944847798,
      "perigee_km": 205.08829708432586,
      "latitude_deg": 1.850857363841655e-06,
      "longitude_deg": 151.29934537623333,
      "height_km": 208.17274272927511,
      "semi_major_axis_km": 6584.637043266402,
      "eccentricity": 0.0002144,
      "inclination_deg": 53.1923,
      "raan_deg": 19.2775,
      "arg_perigee_deg": 238.8215,
      "mean_anomaly_deg": 121.2617,
      "mean_motion_rev_day": 16.24819044
    },
    {
      "epoch": "2026-03-30T00:52:17.152896Z",
      "apogee_km": 194.45967953601303,
      "perigee_km": 188.81125196086123,
      "latitude_deg": -7.757731620101645e-06,
      "longitude_deg": 173.8364100450452,
      "height_km": 193.94287487613389,
      "semi_major_axis_km": 6569.772465748437,
      "eccentricity": 0.00042988,
      "inclination_deg": 53.1901,
      "raan_deg": 14.3417,
      "arg_perigee_deg": 241.1643,
      "mean_anomaly_deg": 118.897,
      "mean_motion_rev_day": 16.30336565
    },
    {
      "epoch": "2026-03-30T08:13:22.253952Z",
      "apogee_km": 188.65498197750549,
      "perigee_km": 182.5698611637563,
      "latitude_deg": 5.919782603415672e-05,
      "longitude_deg": 61.61209385380325,
      "height_km": 187.51610574577361,
      "semi_major_axis_km": 6563.749421570631,
      "eccentricity": 0.00046354,
      "inclination_deg": 53.189,
      "raan_deg": 12.6905,
      "arg_perigee_deg": 251.6625,
      "mean_anomaly_deg": 108.3917,
      "mean_motion_rev_day": 16.3258113
    }
  ]
}